[{"OBJECT_NAME":"ONEWEB-0139","OBJECT_ID":"2020-100AD","EPOCH":"2025-09-28T07:01:30.784224","MEAN_MOTION":13.12442524,"ECCENTRICITY":0.00016318,"INCLINATION":87.8929,"RA_OF_ASC_NODE":42.6774,"ARG_OF_PERICENTER":99.352,"MEAN_ANOMALY":260.7793,"EPHEMERIS_TYPE":0,"CLASSIFICATION_TYPE":"U","NORAD_CAT_ID":47285,"ELEMENT_SET_NO":999,"REV_AT_EPOCH":23037,"BSTAR":0.00083880488,"MEAN_MOTION_DOT":3.14e-6,"MEAN_MOTION_DDOT":0},{"OBJECT_NAME":"ONEWEB-0140","OBJECT_ID":"2020-100AE","EPOCH":"2025-09-27T20:46:58.261440","MEAN_MOTION":13.12444573,"ECCENTRICITY":0.00016358,"INCLINATION":87.8932,"RA_OF_ASC_NODE":42.7476,"ARG_OF_PERICENTER":103.3558,"MEAN_ANOMALY":256.7753,"EPHEMERIS_TYPE":0,"CLASSIFICATION_TYPE":"U","NORAD_CAT_ID":47286,"ELEMENT_SET_NO":999,"REV_AT_EPOCH":23028,"BSTAR":-0.0010844779,"MEAN_MOTION_DOT":-3.77e-6,"MEAN_MOTION_DDOT":0},{"OBJECT_NAME":"ONEWEB-0141","OBJECT_ID":"2020-100AF","EPOCH":"2025-09-27T21:52:10.800768","MEAN_MOTION":13.12442821,"ECCENTRICITY":0.0001923,"INCLINATION":87.8923,"RA_OF_ASC_NODE":42.7527,"ARG_OF_PERICENTER":94.9332,"MEAN_ANOMALY":265.2016,"EPHEMERIS_TYPE":0,"CLASSIFICATION_TYPE":"U","NORAD_CAT_ID":47287,"ELEMENT_SET_NO":999,"REV_AT_EPOCH":23027,"BSTAR":0.00025593245,"MEAN_MOTION_DOT":1.05e-6,"MEAN_MOTION_DDOT":0},{"OBJECT_NAME":"ONEWEB-0142","OBJECT_ID":"2020-100AG","EPOCH":"2025-09-28T06:45:09.561888","MEAN_MOTION":13.12442417,"ECCENTRICITY":0.00020399,"INCLINATION":87.8934,"RA_OF_ASC_NODE":42.6964,"ARG_OF_PERICENTER":100.3901,"MEAN_ANOMALY":259.7457,"EPHEMERIS_TYPE":0,"CLASSIFICATION_TYPE":"U","NORAD_CAT_ID":47288,"ELEMENT_SET_NO":999,"REV_AT_EPOCH":23031,"BSTAR":0.0013871694,"MEAN_MOTION_DOT":5.12e-6,"MEAN_MOTION_DDOT":0},{"OBJECT_NAME":"ONEWEB-0143","OBJECT_ID":"2020-100AH","EPOCH":"2025-09-27T21:50:02.363712","MEAN_MOTION":13.12441541,"ECCENTRICITY":0.00016269,"INCLINATION":87.8931,"RA_OF_ASC_NODE":42.7673,"ARG_OF_PERICENTER":96.8025,"MEAN_ANOMALY":263.3289,"EPHEMERIS_TYPE":0,"CLASSIFICATION_TYPE":"U","NORAD_CAT_ID":47289,"ELEMENT_SET_NO":999,"REV_AT_EPOCH":23024,"BSTAR":0.00028608143,"MEAN_MOTION_DOT":1.16e-6,"MEAN_MOTION_DDOT":0},{"OBJECT_NAME":"ONEWEB-0144","OBJECT_ID":"2020-100AJ","EPOCH":"2025-09-27T21:10:20.358048","MEAN_MOTION":13.1244438,"ECCENTRICITY":0.00018602,"INCLINATION":87.8926,"RA_OF_ASC_NODE":42.7467,"ARG_OF_PERICENTER":105.3776,"MEAN_ANOMALY":254.7559,"EPHEMERIS_TYPE":0,"CLASSIFICATION_TYPE":"U","NORAD_CAT_ID":47290,"ELEMENT_SET_NO":999,"REV_AT_EPOCH":23016,"BSTAR":7.6817966e-5,"MEAN_MOTION_DOT":4.0e-7,"MEAN_MOTION_DDOT":0},{"OBJECT_NAME":"ONEWEB-0145","OBJECT_ID":"2020-100AK","EPOCH":"2025-09-27T22:18:03.533184","MEAN_MOTION":13.12443986,"ECCENTRICITY":0.00017065,"INCLINATION":87.8925,"RA_OF_ASC_NODE":42.7683,"ARG_OF_PERICENTER":102.089,"MEAN_ANOMALY":258.043,"EPHEMERIS_TYPE":0,"CLASSIFICATION_TYPE":"U","NORAD_CAT_ID":47291,"ELEMENT_SET_NO":999,"REV_AT_EPOCH":23036,"BSTAR":-0.0010737773,"MEAN_MOTION_DOT":-3.74e-6,"MEAN_MOTION_DDOT":0},{"OBJECT_NAME":"ONEWEB-0146","OBJECT_ID":"2020-100AL","EPOCH":"2025-09-27T22:13:23.519424","MEAN_MOTION":13.12440163,"ECCENTRICITY":0.00013984,"INCLINATION":87.8927,"RA_OF_ASC_NODE":42.7562,"ARG_OF_PERICENTER":89.2785,"MEAN_ANOMALY":270.8504,"EPHEMERIS_TYPE":0,"CLASSIFICATION_TYPE":"U","NORAD_CAT_ID":47292,"ELEMENT_SET_NO":999,"REV_AT_EPOCH":23027,"BSTAR":-0.00098410018,"MEAN_MOTION_DOT":-3.41e-6,"MEAN_MOTION_DDOT":0},{"OBJECT_NAME":"ONEWEB-0147","OBJECT_ID":"2020-100AM","EPOCH":"2025-09-28T06:33:15.400224","MEAN_MOTION":13.12442048,"ECCENTRICITY":0.00015194,"INCLINATION":87.8932,"RA_OF_ASC_NODE":42.666,"ARG_OF_PERICENTER":106.9675,"MEAN_ANOMALY":253.162,"EPHEMERIS_TYPE":0,"CLASSIFICATION_TYPE":"U","NORAD_CAT_ID":47293,"ELEMENT_SET_NO":999,"REV_AT_EPOCH":23021,"BSTAR":0.0012801281,"MEAN_MOTION_DOT":4.73e-6,"MEAN_MOTION_DDOT":0},{"OBJECT_NAME":"ONEWEB-0115","OBJECT_ID":"2021-025A","EPOCH":"2025-09-28T06:39:05.056704","MEAN_MOTION":13.13468786,"ECCENTRICITY":0.0001687,"INCLINATION":87.9051,"RA_OF_ASC_NODE":12.249,"ARG_OF_PERICENTER":98.4254,"MEAN_ANOMALY":261.7067,"EPHEMERIS_TYPE":0,"CLASSIFICATION_TYPE":"U","NORAD_CAT_ID":48042,"ELEMENT_SET_NO":999,"REV_AT_EPOCH":21921,"BSTAR":0.00087230286,"MEAN_MOTION_DOT":3.31e-6,"MEAN_MOTION_DDOT":0},{"OBJECT_NAME":"ONEWEB-0152","OBJECT_ID":"2021-025B","EPOCH":"2025-09-28T05:08:52.641888","MEAN_MOTION":13.13471457,"ECCENTRICITY":0.00016016,"INCLINATION":87.9048,"RA_OF_ASC_NODE":12.2746,"ARG_OF_PERICENTER":101.8032,"MEAN_ANOMALY":258.3277,"EPHEMERIS_TYPE":0,"CLASSIFICATION_TYPE":"U","NORAD_CAT_ID":48043,"ELEMENT_SET_NO":999,"REV_AT_EPOCH":21916,"BSTAR":0.00019877208,"MEAN_MOTION_DOT":8.5e-7,"MEAN_MOTION_DDOT":0},{"OBJECT_NAME":"ONEWEB-0153","OBJECT_ID":"2021-025C","EPOCH":"2025-09-28T06:26:53.521728","MEAN_MOTION":13.13471719,"ECCENTRICITY":0.00017523,"INCLINATION":87.9052,"RA_OF_ASC_NODE":12.2647,"ARG_OF_PERICENTER":99.4081,"MEAN_ANOMALY":260.7246,"EPHEMERIS_TYPE":0,"CLASSIFICATION_TYPE":"U","NORAD_CAT_ID":48044,"ELEMENT_SET_NO":999,"REV_AT_EPOCH":21916,"BSTAR":0.00094630991,"MEAN_MOTION_DOT":3.58e-6,"MEAN_MOTION_DDOT":0},{"OBJECT_NAME":"ONEWEB-0154","OBJECT_ID":"2021-025D","EPOCH":"2025-09-28T06:22:01.495776","MEAN_MOTION":13.1346942,"ECCENTRICITY":0.00016588,"INCLINATION":87.905,"RA_OF_ASC_NODE":12.2615,"ARG_OF_PERICENTER":100.0822,"MEAN_ANOMALY":260.0495,"EPHEMERIS_TYPE":0,"CLASSIFICATION_TYPE":"U","NORAD_CAT_ID":48045,"ELEMENT_SET_NO":999,"REV_AT_EPOCH":21912,"BSTAR":0.00091914801,"MEAN_MOTION_DOT":3.48e-6,"MEAN_MOTION_DDOT":0},{"OBJECT_NAME":"ONEWEB-0116","OBJECT_ID":"2021-025E","EPOCH":"2025-09-27T16:40:30.460800","MEAN_MOTION":13.13467782,"ECCENTRICITY":0.00016258,"INCLINATION":87.9055,"RA_OF_ASC_NODE":12.3572,"ARG_OF_PERICENTER":99.1493,"MEAN_ANOMALY":260.982,"EPHEMERIS_TYPE":0,"CLASSIFICATION_TYPE":"U","NORAD_CAT_ID":48046,"ELEMENT_SET_NO":999,"REV_AT_EPOCH":21919,"BSTAR":-0.0008889816,"MEAN_MOTION_DOT":-3.12e-6,"MEAN_MOTION_DDOT":0},{"OBJECT_NAME":"ONEWEB-0150","OBJECT_ID":"2021-025F","EPOCH":"2025-09-28T06:43:57.582912","MEAN_MOTION":13.13468851,"ECCENTRICITY":0.0001883,"INCLINATION":87.9051,"RA_OF_ASC_NODE":12.2362,"ARG_OF_PERICENTER":96.4791,"MEAN_ANOMALY":263.6552,"EPHEMERIS_TYPE":0,"CLASSIFICATION_TYPE":"U","NORAD_CAT_ID":48047,"ELEMENT_SET_NO":999,"REV_AT_EPOCH":21916,"BSTAR":0.00079221057,"MEAN_MOTION_DOT":3.02e-6,"MEAN_MOTION_DDOT":0},{"OBJECT_NAME":"ONEWEB-0107","OBJECT_ID":"2021-025G","EPOCH":"2025-09-28T06:46:24.635712","MEAN_MOTION":13.13469543,"ECCENTRICITY":0.0001983,"INCLINATION":87.9051,"RA_OF_ASC_NODE":12.2337,"ARG_OF_PERICENTER":106.1825,"MEAN_ANOMALY":253.9523,"EPHEMERIS_TYPE":0,"CLASSIFICATION_TYPE":"U","NORAD_CAT_ID":48048,"ELEMENT_SET_NO":999,"REV_AT_EPOCH":21914,"BSTAR":0.00093042678,"MEAN_MOTION_DOT":3.53e-6,"MEAN_MOTION_DDOT":0}]
