ONEWEB-0139             
1 47285U 20100AD  25271.29271741  .00000314  00000+0  83880-3 0  9996
2 47285  87.8929  42.6774 0001631  99.3520 260.7793 13.12442524230377
ONEWEB-0140             
1 47286U 20100AE  25270.86595210 -.00000377  00000+0 -10845-2 0  9990
2 47286  87.8932  42.7476 0001635 103.3558 256.7753 13.12444573230280
ONEWEB-0141             
1 47287U 20100AF  25270.91123612  .00000105  00000+0  25593-3 0  9994
2 47287  87.8923  42.7527 0001923  94.9332 265.2016 13.12442821230273
ONEWEB-0142             
1 47288U 20100AG  25271.28136067  .00000512  00000+0  13872-2 0  9992
2 47288  87.8934  42.6964 0002039 100.3901 259.7457 13.12442417230316
ONEWEB-0143             
1 47289U 20100AH  25270.90974958  .00000116  00000+0  28608-3 0  9994
2 47289  87.8931  42.7673 0001626  96.8025 263.3289 13.12441541230242
ONEWEB-0144             
1 47290U 20100AJ  25270.88218007  .00000040  00000+0  76818-4 0  9992
2 47290  87.8926  42.7467 0001860 105.3776 254.7559 13.12444380230167
ONEWEB-0145             
1 47291U 20100AK  25270.92920756 -.00000374  00000+0 -10738-2 0  9998
2 47291  87.8925  42.7683 0001706 102.0890 258.0430 13.12443986230365
ONEWEB-0146             
1 47292U 20100AL  25270.92596666 -.00000341  00000+0 -98410-3 0  9996
2 47292  87.8927  42.7562 0001398  89.2785 270.8504 13.12440163230278
ONEWEB-0147             
1 47293U 20100AM  25271.27309491  .00000473  00000+0  12801-2 0  9997
2 47293  87.8932  42.6660 0001519 106.9675 253.1620 13.12442048230214
ONEWEB-0115             
1 48042U 21025A   25271.27714186  .00000331  00000+0  87230-3 0  9990
2 48042  87.9051  12.2490 0001687  98.4254 261.7067 13.13468786219213
ONEWEB-0152             
1 48043U 21025B   25271.21449817  .00000085  00000+0  19877-3 0  9999
2 48043  87.9048  12.2746 0001601 101.8032 258.3277 13.13471457219161
ONEWEB-0153             
1 48044U 21025C   25271.26867502  .00000358  00000+0  94631-3 0  9994
2 48044  87.9052  12.2647 0001752  99.4081 260.7246 13.13471719219164
ONEWEB-0154             
1 48045U 21025D   25271.26529509  .00000348  00000+0  91915-3 0  9998
2 48045  87.9050  12.2615 0001658 100.0822 260.0495 13.13469420219126
ONEWEB-0116             
1 48046U 21025E   25270.69479700 -.00000312  00000+0 -88898-3 0  9991
2 48046  87.9055  12.3572 0001625  99.1493 260.9820 13.13467782219198
ONEWEB-0150             
1 48047U 21025F   25271.28052758  .00000302  00000+0  79221-3 0  9995
2 48047  87.9051  12.2362 0001883  96.4791 263.6552 13.13468851219165
ONEWEB-0107             
1 48048U 21025G   25271.28222958  .00000353  00000+0  93043-3 0  9991
2 48048  87.9051  12.2337 0001983 106.1825 253.9523 13.13469543219143
